45142,ONEWEB-0033,2020,109.89,148.0,+,87.89,Active,1,LEO,Kazakhstan,UK,Commercial,Communications,Soyuz,1 45142U 20008M   24327.44061149  .00000387  00000+0  10714-2 0  9995,2 45142  87.8881 150.1573 0001313  82.6668 277.4608 13.10369024233331,13.10369024,0.0001313,LEO
45143,ONEWEB-0035,2020,109.9,148.0,+,87.89,Active,1,LEO,Kazakhstan,UK,Commercial,Communications,Soyuz,1 45143U 20008N   24327.01398429 -.00000432  00000+0 -12750-2 0  9998,2 45143  87.8890 150.2326 0001377  87.6411 272.4874 13.10376273233008,13.10376273,0.0001377,LEO
45144,ONEWEB-0036,2020,109.89,148.0,+,87.89,Active,1,LEO,Kazakhstan,UK,Commercial,Communications,Soyuz,1 45144U 20008P   24327.08038110 -.00000712  00000+0 -20747-2 0  9990,2 45144  87.8882 150.1701 0001687  93.8576 266.2744 13.10371113233444,13.10371113,0.0001687,LEO
45145,ONEWEB-0038,2020,109.81,148.0,+,87.89,Active,1,LEO,Kazakhstan,UK,Commercial,Communications,Soyuz,1 45145U 20008Q   24327.46518312  .00000566  00000+0  15612-2 0  9990,2 45145  87.8881 134.9673 0002111  80.8764 279.2603 13.11414573235393,13.11414573,0.0002111,LEO
45146,ONEWEB-0039,2020,109.89,148.0,+,87.89,Active,1,LEO,Kazakhstan,UK,Commercial,Communications,Soyuz,1 45146U 20008R   24327.52028371  .00000180  00000+0  48030-3 0  9992,2 45146  87.8886 150.1017 0002123  85.5987 274.5383 13.10368012234075,13.10368012,0.0002123,LEO
45147,ONEWEB-0040,2020,109.89,148.0,+,87.89,Active,1,LEO,Kazakhstan,UK,Commercial,Communications,Soyuz,1 45147U 20008S   24327.43729357  .00000453  00000+0  12613-2 0  9995,2 45147  87.8891 150.1298 0001522  85.8204 274.3097 13.10369528232981,13.10369528,0.0001522,LEO
45149,ONEWEB-0043,2020,109.89,148.0,+,87.89,Active,1,LEO,Kazakhstan,UK,Commercial,Communications,Soyuz,1 45149U 20008U   24327.51531420  .00000354  00000+0  97677-3 0  9992,2 45149  87.8884 150.1127 0002076  94.0603 266.0762 13.10372773234093,13.10372773,0.0002076,LEO
45150,ONEWEB-0044,2020,109.89,148.0,+,87.89,Active,1,LEO,Kazakhstan,UK,Commercial,Communications,Soyuz,1 45150U 20008V   24327.61986281 -.00000606  00000+0 -17732-2 0  9999,2 45150  87.8887 150.0857 0001820  93.3722 266.7613 13.10372542234396,13.10372542,0.000182,LEO
